{
  "type": "FeatureCollection",
  "features": [
    {
      "type": "Feature",
      "properties": {
        "norad_id": 27954,
        "name": "GALAXY 13 (HORIZONS-1)",
        "group": "intelsat",
        "lat": -0.4532849758062003,
        "lon": 57.63428930316176,
        "alt_km": 35793.70267115127,
        "timestamp": "2025-12-27T07:26:24.888460+00:00",
        "meta_object_name": "GALAXY 13 (HORIZONS-1)",
        "meta_object_id": "2003-044A",
        "meta_epoch": "2025-12-26T11:53:43.073088",
        "meta_mean_motion": 1.00272501,
        "meta_eccentricity": 0.0002299,
        "meta_inclination": 0.9724,
        "meta_ra_of_asc_node": 86.2926,
        "meta_arg_of_pericenter": 187.4398,
        "meta_mean_anomaly": 209.9098,
        "meta_ephemeris_type": 0,
        "meta_classification_type": "U",
        "meta_norad_cat_id": 27954,
        "meta_element_set_no": 999,
        "meta_rev_at_epoch": 4484,
        "meta_bstar": 0,
        "meta_mean_motion_dot": 1.54e-06,
        "meta_mean_motion_ddot": 0,
        "tle_line1": "1 27954U 03044A   25360.49563742  .00000154  00000+0  00000+0 0  9992",
        "tle_line2": "2 27954   0.9724  86.2926 0002299 187.4398 209.9098  1.00272501 44841"
      },
      "geometry": {
        "type": "Point",
        "coordinates": [
          57.63428930316176,
          -0.4532849758062003
        ]
      }
    },
    {
      "type": "Feature",
      "properties": {
        "norad_id": 28358,
        "name": "INTELSAT 10-02",
        "group": "intelsat",
        "lat": 0.0018013608928810498,
        "lon": -153.33311627916996,
        "alt_km": 35786.69050665691,
        "timestamp": "2025-12-27T07:26:24.888473+00:00",
        "meta_object_name": "INTELSAT 10-02",
        "meta_object_id": "2004-022A",
        "meta_epoch": "2025-12-26T08:51:38.739168",
        "meta_mean_motion": 1.0027058,
        "meta_eccentricity": 0.0001247,
        "meta_inclination": 0.0178,
        "meta_ra_of_asc_node": 41.2908,
        "meta_arg_of_pericenter": 258.9062,
        "meta_mean_anomaly": 286.8755,
        "meta_ephemeris_type": 0,
        "meta_classification_type": "U",
        "meta_norad_cat_id": 28358,
        "meta_element_set_no": 999,
        "meta_rev_at_epoch": 7882,
        "meta_bstar": 0,
        "meta_mean_motion_dot": 1.1e-07,
        "meta_mean_motion_ddot": 0,
        "tle_line1": "1 28358U 04022A   25360.36919837  .00000011  00000+0  00000+0 0  9996",
        "tle_line2": "2 28358   0.0178  41.2908 0001247 258.9062 286.8755  1.00270580 78823"
      },
      "geometry": {
        "type": "Point",
        "coordinates": [
          -153.33311627916996,
          0.0018013608928810498
        ]
      }
    },
    {
      "type": "Feature",
      "properties": {
        "norad_id": 28626,
        "name": "XM-3 (RHYTHM)",
        "group": "intelsat",
        "lat": 0.01854102253009073,
        "lon": -107.36686532545424,
        "alt_km": 36162.363366646736,
        "timestamp": "2025-12-27T07:26:24.888486+00:00",
        "meta_object_name": "XM-3 (RHYTHM)",
        "meta_object_id": "2005-008A",
        "meta_epoch": "2025-12-26T20:46:38.726400",
        "meta_mean_motion": 0.98950574,
        "meta_eccentricity": 0.00022841,
        "meta_inclination": 0.2091,
        "meta_ra_of_asc_node": 82.3398,
        "meta_arg_of_pericenter": 271.2821,
        "meta_mean_anomaly": 100.7769,
        "meta_ephemeris_type": 0,
        "meta_classification_type": "U",
        "meta_norad_cat_id": 28626,
        "meta_element_set_no": 999,
        "meta_rev_at_epoch": 4089,
        "meta_bstar": 0,
        "meta_mean_motion_dot": 7.8e-07,
        "meta_mean_motion_ddot": 0,
        "tle_line1": "1 28626U 05008A   25360.86572600  .00000078  00000+0  00000+0 0  9990",
        "tle_line2": "2 28626   0.2091  82.3398 0002284 271.2821 100.7769  0.98950574 40898"
      },
      "geometry": {
        "type": "Point",
        "coordinates": [
          -107.36686532545424,
          0.01854102253009073
        ]
      }
    },
    {
      "type": "Feature",
      "properties": {
        "norad_id": 28659,
        "name": "DIRECTV 8",
        "group": "intelsat",
        "lat": 0.021566972123672607,
        "lon": 88.60976961389123,
        "alt_km": 35798.7392596001,
        "timestamp": "2025-12-27T07:26:24.888498+00:00",
        "meta_object_name": "DIRECTV 8",
        "meta_object_id": "2005-019A",
        "meta_epoch": "2025-12-26T09:14:16.477152",
        "meta_mean_motion": 1.00271765,
        "meta_eccentricity": 0.0003134,
        "meta_inclination": 0.0135,
        "meta_ra_of_asc_node": 57.3028,
        "meta_arg_of_pericenter": 228.1398,
        "meta_mean_anomaly": 189.2168,
        "meta_ephemeris_type": 0,
        "meta_classification_type": "U",
        "meta_norad_cat_id": 28659,
        "meta_element_set_no": 999,
        "meta_rev_at_epoch": 7534,
        "meta_bstar": 0,
        "meta_mean_motion_dot": 2.3e-07,
        "meta_mean_motion_ddot": 0,
        "tle_line1": "1 28659U 05019A   25360.38491293  .00000023  00000+0  00000+0 0  9993",
        "tle_line2": "2 28659   0.0135  57.3028 0003134 228.1398 189.2168  1.00271765 75343"
      },
      "geometry": {
        "type": "Point",
        "coordinates": [
          88.60976961389123,
          0.021566972123672607
        ]
      }
    },
    {
      "type": "Feature",
      "properties": {
        "norad_id": 28702,
        "name": "GALAXY 28 (G-28)",
        "group": "intelsat",
        "lat": 2.0873419063339913,
        "lon": 127.53180012832082,
        "alt_km": 35700.31254427206,
        "timestamp": "2025-12-27T07:26:24.888511+00:00",
        "meta_object_name": "GALAXY 28 (G-28)",
        "meta_object_id": "2005-022A",
        "meta_epoch": "2025-12-26T19:29:48.902784",
        "meta_mean_motion": 1.00599554,
        "meta_eccentricity": 0.00034373,
        "meta_inclination": 2.8558,
        "meta_ra_of_asc_node": 81.118,
        "meta_arg_of_pericenter": 161.1407,
        "meta_mean_anomaly": 65.1225,
        "meta_ephemeris_type": 0,
        "meta_classification_type": "U",
        "meta_norad_cat_id": 28702,
        "meta_element_set_no": 999,
        "meta_rev_at_epoch": 5024,
        "meta_bstar": 0,
        "meta_mean_motion_dot": -2.34e-06,
        "meta_mean_motion_ddot": 0,
        "tle_line1": "1 28702U 05022A   25360.81237156 -.00000234  00000+0  00000+0 0  9995",
        "tle_line2": "2 28702   2.8558  81.1180 0003437 161.1407  65.1225  1.00599554 50245"
      },
      "geometry": {
        "type": "Point",
        "coordinates": [
          127.53180012832082,
          2.0873419063339913
        ]
      }
    },
    {
      "type": "Feature",
      "properties": {
        "norad_id": 29236,
        "name": "GALAXY 16 (G-16)",
        "group": "intelsat",
        "lat": -0.008547149706338844,
        "lon": 108.62172505218533,
        "alt_km": 35797.39225736426,
        "timestamp": "2025-12-27T07:26:24.888522+00:00",
        "meta_object_name": "GALAXY 16 (G-16)",
        "meta_object_id": "2006-023A",
        "meta_epoch": "2025-12-26T22:50:03.736032",
        "meta_mean_motion": 1.00271352,
        "meta_eccentricity": 0.00026867,
        "meta_inclination": 0.0398,
        "meta_ra_of_asc_node": 205.9574,
        "meta_arg_of_pericenter": 72.116,
        "meta_mean_anomaly": 61.1203,
        "meta_ephemeris_type": 0,
        "meta_classification_type": "U",
        "meta_norad_cat_id": 29236,
        "meta_element_set_no": 999,
        "meta_rev_at_epoch": 7124,
        "meta_bstar": 0,
        "meta_mean_motion_dot": -1.04e-06,
        "meta_mean_motion_ddot": 0,
        "tle_line1": "1 29236U 06023A   25360.95143213 -.00000104  00000+0  00000+0 0  9991",
        "tle_line2": "2 29236   0.0398 205.9574 0002686  72.1160  61.1203  1.00271352 71243"
      },
      "geometry": {
        "type": "Point",
        "coordinates": [
          108.62172505218533,
          -0.008547149706338844
        ]
      }
    },
    {
      "type": "Feature",
      "properties": {
        "norad_id": 29494,
        "name": "DIRECTV 9S",
        "group": "intelsat",
        "lat": 0.802329215834353,
        "lon": 106.42000900878764,
        "alt_km": 35799.08943290916,
        "timestamp": "2025-12-27T07:26:24.888534+00:00",
        "meta_object_name": "DIRECTV 9S",
        "meta_object_id": "2006-043A",
        "meta_epoch": "2025-12-26T11:22:08.461920",
        "meta_mean_motion": 1.00271472,
        "meta_eccentricity": 0.000309,
        "meta_inclination": 1.9736,
        "meta_ra_of_asc_node": 83.0647,
        "meta_arg_of_pericenter": 197.4585,
        "meta_mean_anomaly": 244.0274,
        "meta_ephemeris_type": 0,
        "meta_classification_type": "U",
        "meta_norad_cat_id": 29494,
        "meta_element_set_no": 999,
        "meta_rev_at_epoch": 4965,
        "meta_bstar": 0,
        "meta_mean_motion_dot": -9.2e-07,
        "meta_mean_motion_ddot": 0,
        "tle_line1": "1 29494U 06043A   25360.47370905 -.00000092  00000+0  00000+0 0  9992",
        "tle_line2": "2 29494   1.9736  83.0647 0003090 197.4585 244.0274  1.00271472 49656"
      },
      "geometry": {
        "type": "Point",
        "coordinates": [
          106.42000900878764,
          0.802329215834353
        ]
      }
    }
  ]
}